{"fetched_at":"2026-03-29T16:36:15Z","count":15609,"tles":[{"name":"STARLINK-32590","line1":"1 63047U 25034U   26087.61732174  .00023878  00000+0  81517-3 0  9990","line2":"2 63047  53.1594 170.2846 0001170  72.0636 288.0493 15.30221812 61972","category":"Starlink"}]}